ONEWEB-0474             
1 51654U 22012AJ  24071.60655862 -.00000513  00000+0 -15049-2 0  9991
2 51654  87.8965 200.6881 0001630  95.1962 264.9352 13.10370603100919
ONEWEB-0475             
1 51655U 22012AK  24072.20172949 -.00000005  00000+0 -44976-4 0  9998
2 51655  87.9265 170.3997 0001956  91.5956 268.5399 13.17649501106076
ONEWEB-0490             
1 54113U 22138A   24071.36682346 -.00000066  00000+0 -19735-3 0  9993
2 54113  87.9120 109.7581 0001884  91.1696 268.9653 13.19724132 67642
ONEWEB-0492             
1 54114U 22138B   24071.54373530  .00000061  00000+0  11944-3 0  9993
2 54114  87.9124 109.7207 0001743  86.5032 273.6300 13.19726585 68544
ONEWEB-0495             
1 54115U 22138C   24071.36998830 -.00000003  00000+0 -40442-4 0  9994
2 54115  87.9122 109.7669 0001990  81.9710 278.1649 13.19726152 67636
ONEWEB-0497             
1 54116U 22138D   24071.53426489  .00000146  00000+0  33205-3 0  9994
2 54116  87.9117 109.7260 0001794  88.8649 271.2689 13.19726535 67641
ONEWEB-0499             
1 54117U 22138E   24071.51687920 -.00000195  00000+0 -51859-3 0  9993
2 54117  87.9126 109.7267 0002492  89.4427 270.6991 13.19724529 67657
ONEWEB-0500             
1 54118U 22138F   24072.12658898  .00000086  00000+0  18222-3 0  9998
2 54118  87.9118 109.6041 0001856  93.2897 266.8448 13.19726349 68618
